Site ID,Site,ASPRO,Country,Region,Latitude,Longitude,Context,Notes,Citations,Chemical Characterization,Laboratory,Analytical Methods,Obsidian analyzed,Agicol,Gollu Dag East,Gollu Dag West,Nenezi Dag,Hasan Dag,Erciyes Dag,Erzincan,Erzerum,Pasinler,Sarikamis,Kars-Kagisman,Ikizdere,Bingol B,Nemrut Dag / Bingol A,Meydan Dag,Tendurek Dag,Suphan Dag,Mus,Kechut,Aragats / Arteni,Gegham,Vardenis / Khorapor,Sjunik,Baksan,Gutanasar,Kojun Dag / Chikiani,Hatis,West Anatolia,Demenegaki,Sta Nychia,Giali,3d high in rubidium,1e-f,Unknown
1_1,Abu Hureyra,1,Syria,Middle Euphrate,35.86666667,38.38333,"AH1 A-B-C, Phases 1-3; Natoufien ; Zarzien final; tranchée E: Mesolithic",,"Moore, A.M.T. et al 2000; McDaniels, J.B. 1976; McDaniels J. et al. 1980","Carter, T. 2012",McMaster University,ED-XRF,7,0,3,0,0,0,0,0,0,0,0,0,0,3,1,0,0,0,0,0,0,0,0,0,0,0,0,0,0,0,0,0,0,0,0
1_2,Mallaha,1,Israel,Southern Levant,33.11666667,35.66666667,Final Natufian,,"Valla F.R. 1984; Cauvin M.C. 1966; Valla, F.R. et al 2001; Valla, F.R. et al 2007; Valla, F.R. 1975a; Valla, F.R. 1975b; Delerue, S.2007; ","Delerue, S. 2007; Valla, F.R. et al 2001 (analysis done by Perlman and Yellin); Valla, F.R. et al 2007 (analysis done by S.D. and G.P.)",,NAA; XRF,136,0,136,0,0,0,0,0,0,0,0,0,0,0,0,0,0,0,0,0,0,0,0,0,0,0,0,0,0,0,0,0,0,0,0
1_3,Mureybet,1,Syria,Middle Euphrate,36.0434,38.1287,IA - Natufian,,"Cauvin, J. 1977; Bellot-Gurlet 1998; Pernicka, E. et al 1997; Gratuze, B. et al 1993; Warren in Cauvin, M.-C. 1991","Bellot-Gurlet 1998; Pernicka, E. et al 1997; Gratuze, B. et al 1993; Warren in Cauvin, M.-C. 1991",,PIGE,3,0,3,0,0,0,0,0,0,0,0,0,0,0,0,0,0,0,0,0,0,0,0,0,0,0,0,0,0,0,0,0,0,0,0
2_1,Boncuklu,2,Turkey,Central Anatolia,37.751834,32.864846,,,"Baird, D. 2010; Carter, T. 2014 (Pers. comm.)","Carter, T. 2014 (Pers. comm)",McMaster University,ED-XRF,61,0,58,1,2,0,0,0,0,0,0,0,0,0,0,0,0,0,0,0,0,0,0,0,0,0,0,0,0,0,0,0,0,0,0
2_2,el Hemmeh,2,Jordan,Southern Levant,30.758,35.55,PPNA,"5 GDE communicated from T.C. initially, then 18 later on. ","Makarewicz, C. et al 2006; Carter, T. (pers. comm.); Contreras et al. 2012","Carter, T. (pers. comm.)",McMaster University,ED-XRF,18,0,18,0,0,0,0,0,0,0,0,0,0,0,0,0,0,0,0,0,0,0,0,0,0,0,0,0,0,0,0,0,0,0,0
2_3,Hallan Cemi,2,Turkey,High Valleys,38.227159,41.238851,,The trace element analysis was published by Rosenberg but was conducted by J.M. Blackman in 1991. ,"Rosenberg, M. 1994; Delerue, S. 2007","Rosenberg, M. 1994",,"""trace element analysis""",16,0,0,0,0,0,0,0,0,0,0,0,0,5,11,0,0,0,0,0,0,0,0,0,0,0,0,0,0,0,0,0,0,0,0
2_4,Jerf el-Ahmar,2,Syria,Middle Euphrate,36.383333,38.183333,"PPNA, transition to PPNB","Abbes' study seems to consolidate all prior analyses, including Bellot-Gurlet's thesis work (probably unpublished. he is also second author). ","Mottram, M. 1997; Pernicka, E. et al 1997; Abbes et al 2003; Bellot-Gurlet, L. 2008","Abbes et al 2003; Pernicka, E. et al 1997; Bellot-Gurlet, L. 2008",,INAA; ICP; ICP-AES; ICP-MS; SEM-EDX; PIXE,44,0,42,0,0,0,0,0,0,0,0,0,0,2,0,0,0,0,0,0,0,0,0,0,0,0,0,0,0,0,0,0,0,0,0
2_5,Jericho,2,Palestine,Southern Levant,31.85,35.433333,"""Proto-Neolithic"" et ""Pre-pottery Neolithic A"" (Kenyon)",,"Crawfoot-Payne, J. 1983; Garfinkel, Y. 2008; Renfrew, C. et al 1966","Renfrew, C. et al 1966; Gale, N.H. 1981",,OES; Strontium isotope Analysis,6,0,6,0,0,0,0,0,0,0,0,0,0,0,0,0,0,0,0,0,0,0,0,0,0,0,0,0,0,0,0,0,0,0,0
2_6,Mureybet,2,Syria,Middle Euphrate,36.0434,38.1287,"IB + II - Khiamian, III - PPNB",,"Cauvin, J. 1977; Bellot-Gurlet 1998; Pernicka, E. et al 1997; Gratuze, B. et al 1993; Warren in Cauvin, M.-C. 1991","Bellot-Gurlet 1998; Pernicka, E. et al 1997; Gratuze, B. et al 1993; Warren in Cauvin, M.-C. 1991",,INAA; PIGE,65,0,62,0,0,0,0,0,0,0,0,0,0,3,0,0,0,0,0,0,0,0,0,0,0,0,0,0,0,0,0,0,0,0,0
3_1,Abu Hureyra,3,Syria,Middle Euphrate,35.86666667,38.38333,"AH2A, Phase 4; tranchées B, C, D, E: Early Aceramic = Neolithic 2",,"McDaniels, J. et al 1980; Moore, A.M.T. 1982; McDaniels, J.B. 1976; Carter, T. (pers. comm.)","Carter, T. (pers. comm.); McDaniels, J. et al 1980",McMaster University,NAA; XRF,47,0,11,0,0,0,0,0,0,0,0,0,0,6,30,0,0,0,0,0,0,0,0,0,0,0,0,0,0,0,0,0,0,0,0
3_2,Aswad,3,Syria,Central Levant,33.366667,36.55,niv. IB (Est); niv. II (Est et Ouest); MPPNB,"The samples analyzed by Delerue and Orange overlapped and it is impossible to differentiate between them; as a result, the data presented for this record may be comprised of duplicate results pertaining to part of the total sample.","Cauvin, M.C. 1974:435; Epstein, S.M. 1977; McDaniels et al 1980; Orange, M. et al 2013; Delerue, S. 2007; McDaniels et al 1980","Orange, M. et al 2013; Delerue, S. 2007; McDaniels et al 1980",,MEB-EDS; EDXRF,223,0,184,0,0,0,0,0,0,0,0,0,0,10,29,0,0,0,0,0,0,0,0,0,0,0,0,0,0,0,0,0,0,0,0
3_3,Beidha,3,Jordan,Southern Levant,30.366667,35.316667,niv. VI-II: PPNB.,"5 samples analyzed by Cauvin were mentioned by Yellin 1996:366, who sites a personal communication by Byrd. This passage only states that 5 samples were analyzed and that they came from both Cappadocia and Eastern Anatolia. ","Yellin, J. et al 1996; Renfrew, C. et al 1968; Wright, G.A. 1969; Cauvin, M.-C. 1991; Mortensen, P. 1970:12; Garfinkel, Y. 2008","Renfrew, C. et al 1968",,OES,3,0,2,0,0,0,0,0,0,0,0,0,0,0,1,0,0,0,0,0,0,0,0,0,0,0,0,0,0,0,0,0,0,0,0
3_4,Birikin Magarasi,3,Turkey,Middle Euphrate,38.15,39.8,PPNB,,"Gratuze, B. et al 1993","Gratuze, B. et al 1993",,PIGE,2,0,0,0,0,0,0,0,0,0,0,0,0,2,0,0,0,0,0,0,0,0,0,0,0,0,0,0,0,0,0,0,0,0,0
3_5,Boy Tepe,3,Turkey,High Valleys,38.883333,38.9,"Neolithic, dating between 9000 - 8000 B.P.",,"Cauvin, M.-C. et al 1991; Balkan, N. 1989","Cauvin, M.-C. et al 1991",,ICP,2,0,0,0,0,0,0,0,0,0,0,0,0,2,0,0,0,0,0,0,0,0,0,0,0,0,0,0,0,0,0,0,0,0,0
3_6,Cayonu,3,Turkey,High Valleys,38.216667,39.816667,Grill plan,,"Caneva, I. et al 1994; Yegingil, Z. et al 2003; Renfrew, C. et al 1968; Wright, G.A. 1969; Benedict, P. 1980; Cambel, H. and Braidwood, R. 1980","Renfrew, C. et al 1968; Wright, G.A. 1969",,FT; INAA; OES,12,0,0,0,0,0,0,0,0,0,0,0,0,6,9,0,0,0,0,0,0,0,0,0,0,0,0,0,0,0,0,0,0,0,0
3_7,Cheikh Hassan,3,Syria,Middle Euphrate,36.1,38.116667,"Late PPNA, early PPNB",,"Abbes, F. et al 2001; Pernicka, E. et al 1997; Gratuze et al 1993; Bellot-Gurlet, L. 2008","Abbes, F. et al 2001; Pernicka, E. et al 1997; Gratuze et al 1993; Bellot-Gurlet, L. 2008",,"ICP-AES, ICP-MS, IA-ICP-MS, ANRC, INAA; PIGE",19,0,14,0,0,0,0,0,0,0,0,0,0,4,1,0,0,0,0,0,0,0,0,0,0,0,0,0,0,0,0,0,0,0,0
3_8,Dja'de,3,Syria,Middle Euphrate,36.383306,38.183278,Phase IVA; PPNB,,"Pernicka, E. et al 1997; Coqueugniot, E. 1994; Bellot-Gurlet, L. 2010","Pernicka, E. et al 1997; Bellot-Gurlet, L. 2010",,INAA; XRF,56,1,45,0,0,0,0,0,0,0,0,0,0,9,1,0,0,0,0,0,0,0,0,0,0,0,0,0,0,0,0,0,0,0,0
3_9,Golbent Ergani,3,Turkey,Central Anatolia,38.283333,39.766667,PPNB,,"Gratuze, B. et al 1993; Ozdogan, M. 1988","Gratuze, B. et al 1993",,PIGE,2,0,0,0,0,0,0,0,0,0,0,0,0,1,1,0,0,0,0,0,0,0,0,0,0,0,0,0,0,0,0,0,0,0,0
3_10,Halula,3,Syria,Middle Euphrate,36.416667,38.166667,Middle PPNB,,"Bellot-Gurlet 1998; Pernicka, E. et al 1997; Molist, M. et al 1994; Molist, M. and Ferrer, A. 1996",Pernicka et al 1997; Schneider pers comm.; Bellot-Gurlet 1998,Pernicka et al 1997; Schneider pers comm.; Bellot-Gurlet 1998,INAA; XRF,8,0,2,0,0,0,0,0,0,0,0,0,0,2,4,0,0,0,0,0,0,0,0,0,0,0,0,0,0,0,0,0,0,0,0
3_11,Horvat Galil,3,Israel,Southern Levant,32.95,35.316667,Early PPNB,"Delerue 2007:223 notes that the one unknown sample has ""une composition totalement 'aberrante' pour une obsidienne""","Delerue, S. 2007; Gopher, A. 1997","Delerue, S. 2007",,ICP-MS; MEB-EDS,5,0,4,0,0,0,0,0,0,0,0,0,0,0,0,0,0,0,0,0,0,0,0,0,0,0,0,0,0,0,0,0,0,0,1
3_12,Jericho,3,Palestine,Southern Levant,31.85,35.433333,"niv. XVII-X: Early Neolithic (Garstang); ""Pre-pottery Neolithic B"" (Kenyon)",,"Crawfoot-Payne, J. 1983; Garfinkel, Y. 2008; Renfrew, C. et al 1966","Renfrew, C. et al 1966",,OES,2,0,2,0,0,0,0,0,0,0,0,0,0,0,0,0,0,0,0,0,0,0,0,0,0,0,0,0,0,0,0,0,0,0,0
3_13,Kfar Hahoresh,3,Israel,Southern Levant,32.7,35.2,Middle PPNB,,"Goring-Morris, N. et al 1998; Delerue, S. 2007; Garfinkel, Y. 2008","Delerue, S. 2007",,MEB-EDS; PIXE,8,0,8,0,0,0,0,0,0,0,0,0,0,0,0,0,0,0,0,0,0,0,0,0,0,0,0,0,0,0,0,0,0,0,0
3_14,Mikhmoret,3,Israel,Southern Levant,32.4059,34.8716,PPNB (early?),,"Perlman, I. and Yellin, J. 1980; Yellin and Garfinkel 1986","Perlman, I. and Yellin, J. 1980; Yellin and Garfinkel 1986",,INAA,6,0,6,0,0,0,0,0,0,0,0,0,0,0,0,0,0,0,0,0,0,0,0,0,0,0,0,0,0,0,0,0,0,0,0
3_15,Mujahiya,3,Israel,Southern Levant,32.816667,35.683333,"Early PPNB, mid-8th millennium B.C.",,"Gopher, A. 1990; Yellin, J. and Gopher, A. 1992; Garfinkel, Y. 2008","Yellin, J. and Gopher, A. 1992",,INAA,13,0,13,0,0,0,0,0,0,0,0,0,0,0,0,0,0,0,0,0,0,0,0,0,0,0,0,0,0,0,0,0,0,0,0
3_16,Mureybet,3,Syria,Middle Euphrate,36.0434,38.1287,IVA; IVB - PPNB,,"Cauvin, J. 1977; Bellot-Gurlet 1998; Pernicka, E. et al 1997; Gratuze, B. et al 1993; Warren in Cauvin, M.-C. 1991","Bellot-Gurlet 1998; Pernicka, E. et al 1997; Gratuze, B. et al 1993; Warren in Cauvin, M.-C. 1991",,INAA; PIGE,23,0,15,0,0,0,0,0,0,0,0,0,0,3,5,0,0,0,0,0,0,0,0,0,0,0,0,0,0,0,0,0,0,0,0
3_17,Nahal Lavan,3,Israel,Southern Levant,30.933333,34.483333,"Early PPNB (Noy), early 9th millennium B.C. (Rosen et al 2005)",,"Burian, F. and Friedman, E. 1988; Perlman, I. and Yellin, J. 1980; Bar Yosef, O. 1976; Garfinkel, Y. 2008; Yellin, J. and Frachtenberg, F. 1992; Rosen, S.A. et al 2005","Yellin, J. and Frachtenberg, F. 1992; Perlman, I. and Yellin, J. 1980; Yellin and Garfinkel 1986; Rosen, S.A. et al 2005",,NAA,63,0,63,0,0,0,0,0,0,0,0,0,0,0,0,0,0,0,0,0,0,0,0,0,0,0,0,0,0,0,0,0,0,0,0
3_18,Netiv Hagdud,3,Palestine,Southern Levant,31.9882,35.4448,PPNA cf. Gilgal,,"Garfinkel, Y. 2008; Nadel, D. 1997; Perlman, I. and Yellin, J. 1980; Yellin, J. 1997","Perlman, I. and Yellin, J. 1980; Yellin, J. 1997",,NAA,8,0,8,0,0,0,0,0,0,0,0,0,0,0,0,0,0,0,0,0,0,0,0,0,0,0,0,0,0,0,0,0,0,0,0
3_19,Nevshehir Kogulalti,3,Turkey,Central Anatolia,38.5441,34.624,PPNB,,"Gratuze, B. et al 1993","Gratuze, B. et al 1993; Innocenti et al 1975",,PIGE,4,0,4,0,0,0,0,0,0,0,0,0,0,0,0,0,0,0,0,0,0,0,0,0,0,0,0,0,0,0,0,0,0,0,0
3_20,Shillourokambos,3,Cyprus,Cyprus,34.721,33.014,"Aceramic Neolithic, contexts dating to IXth and VIIIth centuries",,"Briois, F. et al 1997; Guilaine, J. et al 1995","Briois, F. et al 1997; Gratuze, B. 1999",,ANRC; LA-ICP-MS,64,0,61,0,3,0,0,0,0,0,0,0,0,0,0,0,0,0,0,0,0,0,0,0,0,0,0,0,0,0,0,0,0,0,0
3_21,Yiftael,3,Israel,Southern Levant,32.716667,35.283333,,One specimen was damaged during analysis and yielded no useful information. ,"Yellin, J. and Garfinkle, Y. 1986; Chataigner, C. 1998:282","Yellin, J. and Garfinkel, Y. 1986",,INAA,8,0,7,0,0,0,0,0,0,0,0,0,0,0,0,0,0,0,0,0,0,0,0,0,0,0,0,0,0,0,0,0,0,0,0
4_1,Abu Hureyra,4,Syria,Middle Euphrate,35.86666667,38.38333,"AH2B, Phases 5, 6 and 7; Later Aceramic = Neolithic 2",,"Carter, T. (pers. comm.); McDaniels, J. et al 1980","Carter, T. (pers. comm.); McDaniels, J. et al 1980",McMaster University,ED-XRF; NAA,165,0,29,0,0,0,0,0,0,0,0,0,0,77,56,0,0,0,0,0,0,0,0,0,0,0,0,0,0,0,0,0,3,0,0
4_2,Ain Miri,4,Israel,Southern Levant,33.066667,35.45,Late PPNB,,"Delerue, 2007","Delerue, 2007",,MEB-EDS; PIXE,3,0,3,0,0,0,0,0,0,0,0,0,0,0,0,0,0,0,0,0,0,0,0,0,0,0,0,0,0,0,0,0,0,0,0
4_3,Akarcay Tepe,4,Turkey,Northern Levant,36.919178,38.025658,"Phases III, IV, V and VI",,"Maeda, O. 2007; Maeda, O. 2009 - PhD; Thesis; Delerue, S. and Molist, M., pers. comm (via Maeda)","Maeda, O. 2009 - PhD Thesis; Delerue, S. and Molist, M., pers. comm (via Maeda)",,PIXE,18,0,3,0,0,0,0,0,0,0,0,0,0,11,4,0,0,0,0,0,0,0,0,0,0,0,0,0,0,0,0,0,0,0,0
4_4,Assouad,4,Syria,Middle Euphrate,36.566667,39.016667,"niveaux ou ""marches"" VIII-I (Cauvin): ""PPNB récent de l'Euphrate""",,"Cauvin, M.C. 1972; Cauvin, J. 1972; Cauvin, J. and Cauvin, M.C. 1972; Cauvin, M.C. 1991; Gratuze, B. et al 1993","Gratuze, B. et al 1993",,NAA; PIGE,5,0,0,0,0,0,0,0,0,0,0,0,0,3,2,0,0,0,0,0,0,0,0,0,0,0,0,0,0,0,0,0,0,0,0
4_5,Cafer Huyuk,4,Turkey,High Valleys,38.4,38.75,PPNB du Taurus,,"Cauvin, J. and Aurenche, O. 1982; Cauvin, M.-C. et al 1986; Cauvin, M.C. and Balkan, N. 1985; Ozdogan, M. 1977:57-59","Cauvin, M.-C. et al 1986; Cauvin, M.C. et al 1991; Gratuze, B. 1993",,ICP-AES; ICP-MS; ICP; PIGE,21,0,0,0,0,0,0,0,0,0,0,0,0,17,4,0,0,0,0,0,0,0,0,0,0,0,0,0,0,0,0,0,0,0,0
4_6,Catalhoyuk,4,Turkey,Central Anatolia,37.666454,32.828349,Pre-XII.A-D / South.G; Aceramic/Early Pottery Neolithic transition,"Analyses done prior to 1999 are ignored (see Carter, T. et al 2006: 894-895)","Renfrew, C. et al 1966; Poupeau et al 2010; Cessford, C. 2001","Poupeau et al 2010; Carter, T. 2014 (pers. comm.)",CRP2A (Bordeaux); CENBG (Bordeaux); C2RMF (Paris),SEM-EDS; PIXE,45,0,39,0,6,0,0,0,0,0,0,0,0,0,0,0,0,0,0,0,0,0,0,0,0,0,0,0,0,0,0,0,0,0,0
4_7,Gurcutepe I,4,Turkey,Middle Euphrate,37.119772,38.845938,LPPNB,,"Schmidt, K. 1997; Schmidt, K. 1995; Carter, T. (pers. comm.)","Carter, T. (pers. comm.)",McMaster University,ED-XRF,34,0,6,0,1,0,0,0,0,0,0,0,0,12,15,0,0,0,0,0,0,0,0,0,0,0,0,0,0,0,0,0,0,0,0
4_8,Halula,4,Syria,Middle Euphrate,36.416667,38.166667,Late PPNB,,"Pernicka, E. et al 1997; Molist, M. et al 1994; Molist, M. and Ferrer, A. 1996","Bellot-Gurlet, 1998; Pernicka, E. et al 1997",Pernicka et al 1997; Schneider pers comm.; Bellot-Gurlet 1998,INAA; XRF,13,2,1,0,0,0,0,0,0,0,0,0,0,7,3,0,0,0,0,0,0,0,0,0,0,0,0,0,0,0,0,0,0,0,0
4_9,Papazgolu,4,Turkey,High Valleys,38.283333,39.733333,PPNB,,"Gratuze, B. et al 1993","Gratuze, B. et al 1993",,PIGE,2,0,0,0,0,0,0,0,0,0,0,0,0,1,1,0,0,0,0,0,0,0,0,0,0,0,0,0,0,0,0,0,0,0,0
4_10,Ramad,4,Syria,Central Levant,33.4,36.1,"niv. I (base du carré Ouest, carré Est, sommet du carré Nord): pré-céramique = PPNB;  niv. II (carrés Ouest, Est, Nord): PPNB final",,"Renfrew, C. et al 1966; Wright, G.A. 1969; Cauvin, M.C. 2000; De Contenson, H. 2000; Garfinkel, Y. 2008","Renfrew, C. et al 1966; Wright, G.A. and Gordus, A.A. 1969",,OES,5,0,3,0,0,0,0,0,0,0,0,0,0,0,2,0,0,0,0,0,0,0,0,0,0,0,0,0,0,0,0,0,0,0,0
4_11,Ras Shamra,4,Syria,Northern Levant,35.6,35.633333,"niv. V C 1-3, ""néolithique Ancien de Ras Shamra""",,"Renfrew, C. et al 1966","Renfrew, C. et al 1966",,OES,3,0,2,0,0,0,0,0,0,0,0,0,0,0,0,0,0,0,0,0,0,0,0,0,0,0,0,0,0,0,0,0,1,0,0
4_12,Tell el-Kerkh 2,4,Syria,Northern Levant,35.816667,36.45,"El-Rouj 1, layers 12-7",,"Maeda, O. 2003","Maeda, O. 2003",,ED-XRF; ICP-AES,113,0,93,0,8,0,0,0,0,0,0,0,0,9,3,0,0,0,0,0,0,0,0,0,0,0,0,0,0,0,0,0,0,0,0
4_13,Tell Labweh,4,Lebanon,Northern Levant,34.183333,36.316667,"Level IV, III/Late PPNB",,"Khalidi, L. et al 2013","Khalidi, L. et al 2013",,LA-HR-ICP-MS,23,0,16,0,2,0,0,0,0,0,0,0,0,5,0,0,0,0,0,0,0,0,0,0,0,0,0,0,0,0,0,0,0,0,0
4_14,Wadi Tumbaq,4,Syria,Northern Levant,35.027,37.429,Late/Final PPNB,,"Abbes, F. 2008; Delerue, S. 2007","Delerue, S. 2007",,MEB-EDS,3,0,3,0,0,0,0,0,0,0,0,0,0,0,0,0,0,0,0,0,0,0,0,0,0,0,0,0,0,0,0,0,0,0,0
5_1,Abu Hureyra,5,Syria,Middle Euphrate,35.86666667,38.38333,"AH2C, Phases 8, Ceramic Neolithic",,"Carter, T. (pers. comm.); McDaniels, J. et al 1980","Carter, T. (pers. comm.); McDaniels, J. et al 1980",McMaster University,ED-XRF; NAA,141,0,41,0,0,0,0,0,0,0,0,0,0,65,33,0,0,0,0,0,0,0,0,0,0,0,0,0,0,0,0,0,2,0,0
5_2,Ashkelon,5,Israel,Southern Levant,31.66666667,34.55,PPNC,,"Garfinkel, Y. and Dag, D. 2008; Keller, J. et al 2008; Garfinkel,Y. 2008; Delerue, S. 2007","Keller, J. et al 2008; Delerue, S. 2007",,INAA; ICP-MS; PIXE,11,0,7,0,4,0,0,0,0,0,0,0,0,0,0,0,0,0,0,0,0,0,0,0,0,0,0,0,0,0,0,0,0,0,0
5_3,Beisamoun,5,Israel,Southern Levant,33.166667,35.55,PPNB,,"Lechevallier, M. 1978; Perlman, I. and Yellin, J. 1978; Wright, G.A. and Gordus, A.A. 1969; Perlman, I. and Yellin, J. 1980; ","Wright, G.A. and Gordus, A.A. 1969; Yellin and Garfinkel 1986; Perlman and Yellin 1980; Perlman and Yellin 1978",,OES; REE; INAA,31,0,27,0,1,0,0,0,0,0,0,0,0,0,1,1,0,0,0,0,0,0,0,0,0,0,0,0,0,0,0,0,0,0,1
5_4,Cap Andreas,5,Cyprus,Cyprus,35.691667,34.583333,Aceramic Neolithic,"Le Brun mentions that the obsidian originates from Gollu Dag, referring to Renfrew's analysis of Khirokitian obsidian, but he may simply be noting this because the colour is the same. ","Le Brun, A. 1981; Gomez, B. 1995","Le Brun, A. 1981; Renfrew, C. et al 1968?",,OES,13,0,13,0,0,0,0,0,0,0,0,0,0,0,0,0,0,0,0,0,0,0,0,0,0,0,0,0,0,0,0,0,0,0,0
5_5,Catalhoyuk,5,Turkey,Central Anatolia,37.666454,32.828349,Phase XII - IV/II; Early Pottery Neolithic,"Analyses done prior to 1999 are ignored (see Carter, T. et al 2006: 894-895). Is it odd that Catal East and West are contemporaries? ","Carter, T. et al 2006; Carter and Shackley 2007; Poupeau et al 2010; Carter et al 2008; Cessford, C. 2001","Carter, T. et al 2006; Carter and Shackley 2007; Poupeau et al 2010; Carter et al 2008",Berkeley; Aberystwyth; CNRS,LA-ICP-MS; ED-XRF; PIXE; SEM-EDS,230,1,134,0,90,0,0,0,0,0,0,0,0,0,5,0,0,0,0,0,0,0,0,0,0,0,0,0,0,0,0,0,0,0,0
5_6,Damishliyya I,5,Syria,Middle Euphrate,36.516667,39.033333,Late PPNB/Pottery Neolithic,,"Astruc, L. et al 2007","Astruc, L. et al 2007",,XRF; LA-ICP-MS,63,0,0,0,0,0,0,0,0,0,0,0,0,44,19,0,0,0,0,0,0,0,0,0,0,0,0,0,0,0,0,0,0,0,0
5_7,El Kowm 2,5,Syria,Northern Levant,35.183333,38.866667,FPPNB,,"Cauvin, J. et al 1979; Gratuze, B. et al 1993; Cauvin, M.C. et al 1991; Cauvin, M.C. 1991; Chataigner, C. 1998:283","Gratuze, B. et al 1993; Cauvin, M.C. et al 1991",,NAA; XRF; PIGE,17,1,2,0,0,0,0,0,0,0,0,0,0,5,8,0,0,0,0,0,0,0,0,0,0,0,0,0,0,0,0,0,0,0,4
5_8,el-Khiam,5,Palestine,Southern Levant,31.633333,35.266667,"Level A2-1 (Neuville) and Level 1 Tahunian (Echegaray), Neolithic 2 (Moore)",,"Perrot, J. 1951; Wright, G.A. and Gordus, A.A. 1969","Wright, G.A. and Gordus, A.A. 1969",,OES; NAA,1,1,0,0,0,0,0,0,0,0,0,0,0,0,0,0,0,0,0,0,0,0,0,0,0,0,0,0,0,0,0,0,0,0,0
5_9,Ghoraife,5,Syria,Central Levant,33.516667,36.533333,"Phase 1, approximately 6900 - 6400 B.C.",,"McDaniels, J. et al 1980; De Contenson, H. 1995","McDaniels, J. et al 1980",,NAA,6,0,4,0,0,0,0,0,0,0,0,0,0,0,2,0,0,0,0,0,0,0,0,0,0,0,0,0,0,0,0,0,0,0,0
5_10,Hagoshrim,5,Israel,Southern Levant,33.183333,35.633333,néolithique,"The 28 specimens listed here are simply taken from Delerue's annexe, but I believe that the analyses were done by Gopher. ","Garfinkel, Y. 2008; Gopher, A. et al 1998; Perrot, J. 1968; Delerue, S. 2007; Schecter et al 2013","Delerue, S. 2007",,ICP-MS,28,0,5,0,0,0,0,0,0,0,4,0,0,6,7,3,0,0,0,0,0,0,0,0,0,0,0,0,0,0,0,0,0,0,3
5_11,Halula,5,Syria,Middle Euphrate,36.416667,38.166667,Pre Halaf,,"Pernicka, E. et al 1997; Molist, M. et al 1994; Molist, M. and Ferrer, A. 1996","Bellot-Gurlet, 1998; Pernicka, E. et al 1997",Pernicka et al 1997; Schneider pers comm.; Bellot-Gurlet 1998,INAA,11,0,3,0,1,0,0,0,0,0,0,0,0,2,3,0,0,0,0,0,0,0,0,0,0,0,0,0,0,0,0,0,0,0,2
5_12,Horvat Usa,5,Israel,Southern Levant,32.64,35.66,Pottery Neolithic,,"Delerue, S. 2007","Delerue, S. 2007",,ICP-MS,4,0,1,0,0,0,0,0,0,0,0,0,0,2,0,0,0,0,0,0,1,0,0,0,0,0,0,0,0,0,0,0,0,0,0
5_13,Ilicapinar,5,Turkey,Central Anatolia,38.566667,32.933333,PPNB,,"Mellaart, J. 1958; Gratuze, B. et al 1993","Gratuze, B. et al 1993",,PIGE,3,0,3,0,0,0,0,0,0,0,0,0,0,0,0,0,0,0,0,0,0,0,0,0,0,0,0,0,0,0,0,0,0,0,0
5_14,Kalavasos Tenta,5,Cyprus,Cyprus,34.75249,33.30293,,,"Peltenburg, E.J. 1979; Todd, 1986:15; Gomez, B. et al 1995","Gomez, B. et al 1995",,NAA,6,0,6,0,0,0,0,0,0,0,0,0,0,0,0,0,0,0,0,0,0,0,0,0,0,0,0,0,0,0,0,0,0,0,0
5_15,Khirokitia,5,Cyprus,Cyprus,34.79543,33.34455,Aceramic Neolithic,,"Stanley-Price, N.P. and Christou, D. 1974; Renfrew, C. et al 1968; Buchholz, H.G. 1971","Renfrew, C. et al 1968; Buchholz, H.G. 1971",,OES,6,0,6,0,0,0,0,0,0,0,0,0,0,0,0,0,0,0,0,0,0,0,0,0,0,0,0,0,0,0,0,0,0,0,0
5_16,Mersin,5,Turkey,Central Anatolia,36.833333,34.566667,niv. XXXIII-XXVIII: Neolithic.,,"Renfrew, C. et al 1966; Wright, G.A. 1969","Renfrew, C. et al 1966; Wright, G.A. 1969:26",,OES,5,0,5,0,0,0,0,0,0,0,0,0,0,0,0,0,0,0,0,0,0,0,0,0,0,0,0,0,0,0,0,0,0,0,0
5_17,Munhata,5,Israel,Southern Levant,32.616667,35.533333,"Layer 6, PPNB. No obsidian from Layer 2B (Yarmoukian) has been sourced. ",,"Gopher, A. 1990; Garfinkel, Y. 2008; Wright, G.A. and Gordus, A.A. 1969; Chataigner 1998:285","Wright, G.A., 1969",,OES,1,0,0,0,1,0,0,0,0,0,0,0,0,0,0,0,0,0,0,0,0,0,0,0,0,0,0,0,0,0,0,0,0,0,0
5_18,Qdeir,5,Syria,Northern Levant,35.25,38.85,PPNB final,,"Aurenche, O. and Cauvin, M.C. 1982; Cauvin, J. 1981; Cauvin, J. et al 1979; Orange, M. et al 2012","Orange, M. et al 2012",,NAA; EDXRF; SEM-EDS,517,0,143,0,4,0,0,0,0,0,0,0,0,248,122,0,0,0,0,0,0,0,0,0,0,0,0,0,0,0,0,0,0,0,0
5_19,Tabbat al-Hammam,5,Syria,Northern Levant,34.76666667,35.98333333,Beginning of Neolithic 3 (Moore's chronology),,"Hole, F. 1959","Renfrew, C. et al 1966; Wright, G.A. and Gordus, A.A. 1969; Wright, G.A. 1969",,OES,3,0,3,0,0,0,0,0,0,0,0,0,0,0,0,0,0,0,0,0,0,0,0,0,0,0,0,0,0,0,0,0,0,0,0
5_20,Tell el-Kerkh 2,5,Syria,Northern Levant,35.816667,36.45,"El-Rouj 2a/2b, layers 6-1",,"Maeda, O. 2003","Maeda, O. 2003",,ED-XRF; ICP-AES,254,0,230,0,17,0,0,0,0,0,0,0,0,1,2,0,0,0,0,0,0,0,0,0,0,0,0,0,0,0,0,0,0,0,4
5_21,Tell Labweh,5,Lebanon,Northern Levant,34.183333,36.316667,Level II-I/Early pottery Neolithic,,"Khalidi, L. et al 2013","Khalidi, L. et al 2013",,LA-HR-ICP-MS,141,2,105,0,2,0,0,0,0,0,0,0,0,21,11,0,0,0,0,0,0,0,0,0,0,0,0,0,0,0,0,0,0,0,0
5_22,Umm et-Tlel,5,Syria,Northern Levant,35.261667,38.896978,"Final PPNB, 5800 BC according to Gratuze 1993",,"Cauvin, J. 1981; Cauvin, J. et al 1979; Gratuze, B. et al 1993; Gratuze, B. 1999","Gratuze, B. et al 1993; Gratuze, B. 1999",,PIGE; XRF; ICP-MS,8,0,0,0,0,0,0,0,0,0,0,0,0,8,0,0,0,0,0,0,0,0,0,0,0,0,0,0,0,0,0,0,0,0,0
6_1,Byblos,6,Lebanon,Northern Levant,34.116667,35.65,néolithique Ancien de Byblos (partie supérieure).,,"Renfrew, C. et al 1966; Cauvin, J. 1962","Renfrew, C. et al 1966",,OES,3,2,1,0,0,0,0,0,0,0,0,0,0,0,0,0,0,0,0,0,0,0,0,0,0,0,0,0,0,0,0,0,0,0,0
6_2,Catalhoyuk,6,Turkey,Central Anatolia,37.666454,32.828349,West Mound; TP Sequence,"Analyses done prior to 1999 are ignored (see Carter, T. et al 2006: 894-895). Is it odd that Catal East and West are contemporaries? ","Carter, T. et al 2006; Carter, T. 2014 (pers. comm.); Cessford, C. 2001","Carter, T. et al 2006; Carter, T. 2014 (pers. comm.)",Aberystwyth; CNRS,LA-ICP-MS; ED-XRF; PIXE; SEM-EDS,76,1,39,0,35,0,0,0,0,0,0,0,0,0,1,0,0,0,0,0,0,0,0,0,0,0,0,0,0,0,0,0,0,0,0
6_3,Coskuntepe,6,Turkey,Western Anatolia,39.483333,26.083333,,,"Takaoglu, T. 2005; Perles, C. et al 2011","Perles, C. et al 2011",,XRF; LA-HR-ICP-MS,3,0,0,0,0,0,0,0,0,0,0,0,0,0,0,0,0,0,0,0,0,0,0,0,0,0,0,0,0,1,2,0,0,0,0
6_4,Cukurkent,6,Turkey,Central Anatolia,37.883333,31.533333,Middle Neolithic,,"Mellaart, J. 1958; Todd, I. 1980; Wright, G..A. 1969; Renfrew, C. et al 1966","Wright, G..A. 1969; Renfrew, C. et al 1966",,OES,5,0,0,0,5,0,0,0,0,0,0,0,0,0,0,0,0,0,0,0,0,0,0,0,0,0,0,0,0,0,0,0,0,0,0
6_5,El Kowm 2,6,Syria,Northern Levant,35.183333,38.866667,PNA,,"Cauvin, J. et al 1979; Gratuze, B. et al 1993; Cauvin, M.C. et al 1991; Cauvin, M.C. 1991; Chataigner, C. 1998:283","Gratuze, B. et al 1993; Cauvin, M.C. et al 1991",,NAA; XRF; PIGE,3,0,1,0,0,0,0,0,0,0,0,0,0,1,1,0,0,0,0,0,0,0,0,0,0,0,0,0,0,0,0,0,0,0,0
6_6,Ghoraife,6,Syria,Central Levant,33.516667,36.533333,"Phase 2, approximately 6400-6100 cal BC",,"De Contenson, H. 1995; Garfinkel, Y. 2008; Cauvin, M.-C. 1975; McDaniels, J. et al 1980","McDaniels, J. et al 1980",,NAA,18,0,4,0,0,0,0,0,0,0,0,0,0,7,7,0,0,0,0,0,0,0,0,0,0,0,0,0,0,0,0,0,0,0,0
6_7,Hacilar,6,Turkey,Central Anatolia,37.716667,30.066667,"niv. IX-VI: Late Pottery Neolithic, apres un hiatus; niv. V-II: Early Chalcolithic","Renfrew's analyses were re-done by Gale who made a correction, that one of the 1e-f was actually Demenegaki. ","Mortensen, P. 1970:153-157; Renfrew, C. et al 1966; Wright, G.A. 1969","Renfrew, C. et al 1966; Gale, N.H. 1981",,OES; Strontium Isotope Analysis,4,3,0,0,0,0,0,0,0,0,0,0,0,0,0,0,0,0,0,0,0,0,0,0,0,0,0,0,0,1,0,0,0,0,0
6_8,Halula,6,Syria,Middle Euphrate,36.416667,38.166667,Halaf,,"Pernicka, E. et al 1997; Molist, M. et al 1994; Molist, M. and Ferrer, A. 1996","Bellot-Gurlet, 1998; Pernicka, E. et al 1997",Pernicka et al 1997; Schneider pers comm.; Bellot-Gurlet 1998,INAA; XRF,15,3,1,0,0,0,0,0,0,0,0,0,0,5,6,0,0,0,0,0,0,0,0,0,0,0,0,0,0,0,0,0,0,0,0
6_9,Ilipinar,6,Turkey,Western Anatolia,40.45,29.3,Phase X,Some are analyzed using Fission Track Dating,"Gatsov 2008; Roodenberg and Roodenberg 2008; Ozdogan, M. and Gatsov, I. 1998; Gatsov, I. 2003; Bigazzi, G. 1993; Gatsov, I. 2001; Gatsov, I. 2009; Roodenberg, J.J. et al 1995; Roodenberg, J.J. et al 2001; Roodenberg, J.J. et al 2008; Roodenberg, J.J. et al 1990","Bigazzi, G. et al 1995",,INAA; FT,3,0,1,0,0,0,0,0,0,0,0,0,0,0,0,0,0,0,0,0,0,0,0,0,0,0,0,0,2,0,0,0,0,0,0
6_10,Kabri,6,Israel,Southern Levant,33.016667,35.133333,,,"Kempinsky, A. 2002; Prausnitz, M.W. 1970; Renfrew, C. et al 1966; Stekelis, M. 1958","Renfrew, C. et al 1966",,OES,1,0,0,0,0,0,0,0,0,0,0,0,0,1,0,0,0,0,0,0,0,0,0,0,0,0,0,0,0,0,0,0,0,0,0
6_11,Klepini-Troulli,6,Cyprus,Cyprus,35.2978,33.4448,,Not in ASPRO. ,"Gomez, B. et al 1995; Buchholz, H.G. 1971; Peltenberg, E.J. 1979","Buchholz, H.G. 1971; Peltenberg, E.J. 1979",,XRF,3,0,3,0,0,0,0,0,0,0,0,0,0,0,0,0,0,0,0,0,0,0,0,0,0,0,0,0,0,0,0,0,0,0,0
6_12,Kritou-Marottou Ais Yiorkis,3,Cyprus,Cyprus,34.9267,32.5625,Cypro-PPNB,,"Fox, W.A. 1987; Simmons 2012; Melson 2010","Fox, W.A. 1987 (analysis by R. Hancock)",,NAA,1,0,1,0,0,0,0,0,0,0,0,0,0,0,0,0,0,0,0,0,0,0,0,0,0,0,0,0,0,0,0,0,0,0,0
6_13,Mersin,6,Turkey,Central Anatolia,36.833333,34.566667,period 6[1] = niv. XXVII: Late Neolithic ou Upper Neolithic ; period 6[2] = niv. XXVI-XXIV : Proto-Chalcolithic.,,"Brice, W.C. 1953; Renfrew, C. et al 1966; Wright, G.A. 1969","Renfrew, C. et al 1966",,OES,5,0,3,0,0,0,0,0,0,0,0,0,0,0,0,0,0,0,0,0,0,0,0,0,0,0,0,0,0,0,0,0,0,2,0
6_14,Nahal Zehora II,6,Israel,Southern Levant,32.41,34.99,Pottery Neolithic - Yarmoukian,The 2 unknown specimens are of distinct geochemical groups. ,"Delerue, S. et al 2012","Delerue, S. et al 2012",,ICP-MS,7,0,1,0,0,0,0,0,0,0,0,0,0,1,3,0,0,0,0,0,0,0,0,0,0,0,0,0,0,0,0,0,0,0,2
6_15,Okuzini Cave,6,Turkey,Western Anatolia,37.066667,30.066667,Late Neolithic - GH IB1. None of the samples from mixed contexts were included here (there were 9 such samples). ,,"Carter, T. et al 2011","Carter, T. et al 2011",,PIXE,14,0,7,0,7,0,0,0,0,0,0,0,0,0,0,0,0,0,0,0,0,0,0,0,0,0,0,0,0,0,0,0,0,0,0
6_16,Sha'ar Hagolan,6,Israel,Southern Levant,32.6865,35.603297,Yarmoukian,,"Carter et al, in press","Carter et al, in press",McMaster University,ED-XRF,34,0,15,0,17,0,0,0,0,0,0,0,0,0,2,0,0,0,0,0,0,0,0,0,0,0,0,0,0,0,0,0,0,0,0
6_17,Tell al-Judaidah,6,Turkey,Northern Levant,36.266667,36.6,niv. XIV (TT 20) et sols 28-25 (JK 3) = Amuq A,The same sample was re-analyzed by Gale 1981. ,"Gale, N.H. 1981","Renfrew, C. et al 1966; Gale, N.H. 1981",,OES; Strontium isotope Analysis,1,0,1,0,0,0,0,0,0,0,0,0,0,0,0,0,0,0,0,0,0,0,0,0,0,0,0,0,0,0,0,0,0,0,0
6_18,Tell Aray 2,6,Syria,Northern Levant,35.583333,36.516667,El Rouj 2c,,"Maeda, O. 2003","Maeda, O. 2003",,ED-XRF; ICP-AES,18,0,10,0,4,0,0,0,0,0,0,0,0,0,2,0,0,0,0,0,0,0,0,0,0,0,0,0,0,0,0,0,0,0,2
6_19,Wisad Pools,6,Jordan,Southern Levant,31.968,38.05,"""earlier part of the ""late Neolithic""",,"Rollefson, G.O. et al 2011; Carter, T. 2014 (pers. comm.)","Carter, T. 2014 (pers. comm.)",McMaster University,ED-XRF,1,0,0,0,0,0,0,0,0,0,0,0,0,0,0,1,0,0,0,0,0,0,0,0,0,0,0,0,0,0,0,0,0,0,0
6_20,Yumuktepe,6,Turkey,Central Anatolia,36.833333,34.566667,Early Neolithic,Altinbilek-Algul refers to Gratuze and Boucetta 2006 which is an unpublished report,"Altinbilek-Algul, C. 2011; Gratuze, B. and Boucetta, S. 2006; Calcagnile, L. et al 2010; Zembello, M. 2004; Caneva, I. 1999","Gratuze, B. and Boucetta, S. 2006; Calcagnile, L. et al 2010",,LA-ICP-MS; PIXE; PIGE,42,1,15,0,26,0,0,0,0,0,0,0,0,0,0,0,0,0,0,0,0,0,0,0,0,0,0,0,0,0,0,0,0,0,0
7_1,Ayngerm,7,Turkey,High Valleys,37.4,41.5,Halaf,,"Benedict, P. 1980; Cambel, H. and Braidwood, R. 1980; Wright, G.A. 1969","Wright, G.A. and Gordus, A.A. 1969",,OES,5,0,0,0,0,0,0,0,0,0,0,0,0,0,5,0,0,0,0,0,0,0,0,0,0,0,0,0,0,0,0,0,0,0,0
7_2,Byblos,7,Lebanon,Northern Levant,34.116667,35.65,levées XLV-XLIV: néolithique Moyen de Byblos.,The analysis of one artefact originally analyzed by Renfrew et al 1966 is re-published in Renfrew and Dixon 1976,"Renfrew, C. et al 1966; Cauvin, J. 1962; Renfrew, C. and Dixon, J. 1976","Renfrew, C. et al 1966",,OES,2,0,0,0,0,0,0,0,0,0,0,0,0,1,0,1,0,0,0,0,0,0,0,0,0,0,0,0,0,0,0,0,0,0,0
7_3,Domuztepe,7,Turkey,Central Anatolia,36.66667,35.48333,"Late Neolithic, Halaf","The analyses by Healey and Campbell 2007 simply compared whether colour could be used to identify source. Only percentages of correct guesses were given, which are quite strange - they do not correspond with whole numbers. For instance, 8 grey artefacts were guessed to be GDE, and according to the authors they were correct with a 32% accuracy. This would mean that 2.56 pieces of obsidian were accurately predicted in regards to their sources. One can not analyze 2.56 pieces of obsidian, and even if one can, why would you? ","Healey, E. 2007; Campbell, S. et al 1999; Healey, E. and Campbell, S. 2007; Carter, E. et al 2003","Healey, E. and Campbell, S. 2007; Healey, E. 2000:101-113",,ICP-MS,50,0,23,0,0,0,0,0,0,6,0,0,0,14,7,0,0,0,0,0,0,0,0,0,0,0,0,0,0,0,0,0,0,0,0
7_4,Givat Ha-Parsa,7,Israel,Southern Levant,31.85,34.7,Equivalent to tail end of Yarmoukian and Jericho IX,,"Yellin, J. and Garfinkel, Y. 1986; Perlman, I. and Yellin, J. 1980; Olami, Y. et al 1977","Perlman, I. and Yellin, J. 1980",,NAA,3,0,3,0,0,0,0,0,0,0,0,0,0,0,0,0,0,0,0,0,0,0,0,0,0,0,0,0,0,0,0,0,0,0,0
7_5,Ilipinar,7,Turkey,Western Anatolia,40.45,29.3,Phase IX,Some are FT. ,"Gatsov 2008; Roodemberg and Roodenberg 2008; Ozdogan, M. and Gatsov, I. 1998; Gatsov, I. 2003; Bigazzi, G. 1993; Gatsov, I. 2001; Gatsov, I. 2009; Roodenberg, J.J. et al 1995; Roodenberg, J.J. et al 2001; Roodenberg, J.J. et al 2008; Roodenberg, J.J. et al 1990; Bigazzi, G. 1998","Bigazzi, G. et al 1995; Bigazzi, G. 1998",,INAA; FT,4,0,3,0,0,0,0,0,0,0,0,0,0,0,0,0,0,0,0,0,0,0,0,0,0,0,0,0,1,0,0,0,0,0,0
7_6,Ras Shamra,7,Syria,Northern Levant,35.6,35.633333,"période 7 (début): niv. IV C: ""Chalcolithique Ancien de Ras Shamra"" = Halaf = Amuq C; période 7 (fin): niv. IV B: ""Chalcolithique Moyen I de Ras Shamra"" = Amuq D",,"Renfrew, C. et al 1966","Renfrew, C. et al 1966",,OES,1,0,1,0,0,0,0,0,0,0,0,0,0,0,0,0,0,0,0,0,0,0,0,0,0,0,0,0,0,0,0,0,0,0,0
7_7,Tel Mevorakh,7,Israel,Southern Levant,32.53333,34.91,"Found in a cut from a Bronze Age rampart, but dated by O. Bar-Yosef to the 'Pottery Neolithic'. Mentioned by Yellin and Perlman (1980) alongside Givat haParsa so will be assigned the same context.",,Yellin and Perlman 1980; Yellin and Perlman 1981; Yellin and Garfinkel 1986,Yellin and Perlman 1980; Yellin and Garfinkel 1986,,NAA,3,0,0,0,1,0,0,0,0,0,0,0,0,0,2,0,0,0,0,0,0,0,0,0,0,0,0,0,0,0,0,0,0,0,0
7_8,Tell Aray 1,7,Syria,Northern Levant,35.9,36.5,"El-Rouj 2d, 3","The five samples associated with unknown sources are broken down as: 4xC2, 1xD. ","Maeda, O. 2003","Maeda, O. 2003",,ED-XRF; ICP-AES,26,0,2,0,0,0,0,0,0,0,0,0,0,8,11,0,0,0,0,0,0,0,0,0,0,0,0,0,0,0,0,0,0,0,5
8_1,Abd el-Aziz,8,Syria,Northern Levant,35.883333,36.5,El Rouj 4,The unknown sample corresponds with Maeda's group C2. ,"Maeda, O. 2003","Maeda, O. 2003",,ED-XRF; ICP-AES,4,0,1,0,0,0,0,0,0,0,0,0,0,1,1,0,0,0,0,0,0,0,0,0,0,0,0,0,0,0,0,0,0,0,1
8_2,Hazorea,8,Israel,Southern Levant,32.65,35.1,,The unknown cluster is the same as that from Tell Abdul Hosein. ,"Perrot, J. 1967","Wright, G.A. and Gordus, A.A.; Wright, G.A. 1969",,OES,4,0,1,0,0,0,0,0,0,0,0,0,0,2,1,0,0,0,0,0,0,0,0,0,0,0,0,0,0,0,0,0,0,0,0
8_3,Tell Kosak Shamali,8,Syria,Middle Euphrate,35.92,38.51,Early Northern Ubaid - levels 17-10 (Sector A),,"Nishiaki, Y. and Matsutani, T. 2003; Bellot-Gurlet, L. et al 2003","Bellot-Gurlet, L. et al 2003",Grenoble,REE; ICP-MS; ICP-AES,4,0,1,0,0,0,0,0,0,0,0,0,0,1,2,0,0,0,0,0,0,0,0,0,0,0,0,0,0,0,0,0,0,0,0
8_4,Tell Kurdu,8,Turkey,Northern Levant,36.35,36.51666667,Amuq C/Halaf; Amuq D/Transitional Halaf-Ubaid; Halaf final,,"Bressy, C. et al 2005; Delerue, S. 2007","Bressy, C. et al 2005; Delerue, S. 2007",Grenoble,ICP-MS; ICP-AES,21,0,5,0,0,0,0,0,0,0,4,0,0,7,4,1,0,0,0,0,0,0,0,0,0,0,0,0,0,0,0,0,0,0,0
9_1,Degirmentepe,9,Turkey,High Valleys,38.466667,38.483333,Late Chalcolithic/Uruk,"13 specimens were analyzed, but no provenance was actually given by Tessadri 1987. The chemical characterization of 12 of these specimens was interpreted by Chataigner 1998:308. ","Balkan-Atli, N. 1995; Ozdogan, M. 1977:46; Yegingil, Z. 1983; Duru, R. 1979; Yegingil, Z. and Lunel, T. 1989","Tessandri, 1987; Yegingil and Lunel 1989; Yegingil, Z. 1983; Chataigner, C. 1998:308",Innsbruck,FT,13,0,0,0,0,0,0,0,0,0,0,0,0,10,2,0,0,0,0,0,0,0,0,0,0,0,0,0,0,0,0,0,0,0,1
9_2,Ras Shamra,9,Syria,Northern Levant,35.6,35.633333,"période 8 (début): niv. IV A: ""Chalcolithique Moyen II de Ras Shamra"" = Amuq D; période 8 (fin): niv. III C: ""Chalcolithique récent I de Ras Shamra"" = Amuq E (d'aprés Contenson 1982); niv. III B: ""Chalcolithique récent II de Ras Shamra"" = Amuq E (Contenson 1970) = Amuq First Mixed Range (Contenson 1982) = Obeid récent",,"Renfrew, C. et al 1966","Renfrew, C. et al 1966",,OES,2,0,1,0,0,0,0,0,0,0,0,0,0,1,0,0,0,0,0,0,0,0,0,0,0,0,0,0,0,0,0,0,0,0,0
9_3,Tell Kosak Shamali,9,Syria,Middle Euphrate,35.92,38.51,Late Northern Ubaid - levels 9-4 (Sector A) + Sector B,,"Nishiaki, Y. and Matsutani, T. 2003; Bellot-Gurlet, L. et al 2003","Bellot-Gurlet, L. et al 2003",Grenoble,REE; ICP-MS; ICP-AES,5,0,0,0,0,0,0,0,0,0,0,0,0,1,4,0,0,0,0,0,0,0,0,0,0,0,0,0,0,0,0,0,0,0,0
9_4,Tell Kurdu,9,Turkey,Northern Levant,36.35,36.51666667,Amuq E/Ubaid,,"Bressy, C. et al 2005","Bressy, C. et al 2005",Grenoble,ICP-MS; ICP-AES,6,0,2,0,0,0,0,0,0,1,0,0,0,0,3,0,0,0,0,0,0,0,0,0,0,0,0,0,0,0,0,0,0,0,0
10_1,Agios Epiktitos Vrisy,10,Cyprus,Cyprus,35.3217,33.3883,,,"Peltenburg, E.J. 1979","Peltenburg, E.J. 1979",University of Michigan,NAA,1,0,1,0,0,0,0,0,0,0,0,0,0,0,0,0,0,0,0,0,0,0,0,0,0,0,0,0,0,0,0,0,0,0,0
10_2,Aphrodisias,10,Turkey,Western Anatolia,37.7083,28.7236,Late Chalcolithic 1 - 4360-3395 BC,"The unknown sample has high concentrations of Arsenic, Cesium, Barium and Scandium. ","Blackman, M.J. 1986; Joukowski, M.S. 1986","Blackman, M.J. 1986",Smithsonian,INAA,7,0,1,0,1,0,0,0,0,0,0,0,0,0,0,0,0,0,0,0,0,0,0,0,0,0,0,0,0,0,4,0,0,0,1
10_3,Arslantepe,10,Turkey,High Valleys,38.382023,38.36119,Similar to Amuq F,,"Fornaseri, M. et al 1975","Fornaseri, M. et al 1975",Rome,XRF,31,0,2,0,0,0,0,0,0,0,0,0,0,0,6,16,0,10,0,0,0,0,0,0,0,0,0,0,0,0,0,0,0,0,0
10_4,Byblos,10,Lebanon,Northern Levant,34.116667,35.65,Levées XXXIX-XXXVIII: Enéolithique Ancien de Byblos.,,"Renfrew, C. et al 1966; Cauvin, J. 1962; Renfrew, C. and Dixon, J. 1976","Renfrew, C. et al 1966",,OES,1,0,1,0,0,0,0,0,0,0,0,0,0,0,1,0,0,0,0,0,0,0,0,0,0,0,0,0,0,0,0,0,0,0,0
10_5,Gilat,10,Israel,Southern Levant,31.3263,34.6487,"Chalcolithic, strata III-II, 4500 - 3500 B.C.E.",,"Yellin, J. et al 1996","Yellin, J. et al 1996",Hebrew University Archaoemetry Laboratory (Jerusalem),NAA,8,2,2,0,0,0,0,0,0,0,0,0,0,0,3,0,0,0,0,0,0,0,0,0,0,0,0,0,0,0,0,0,0,0,1
10_6,Hassek Huyuk,10,Syria,Middle Euphrate,37.68333333,39.15,Chalcolithic,"Cauvin et al 1991 suggests that the two unknown specimens belong to Agicol or Bingol source groups, but is uncertain of this assessment. ","Cauvin, M.C. et al 1991","Cauvin, M.C. et al 1991",,ICP,10,0,0,0,0,0,0,0,0,0,0,0,0,7,1,0,0,0,0,0,0,0,0,0,0,0,0,0,0,0,0,0,0,0,2
10_7,Marj Rabba,10,Israel,Central Levant,32.843557,35.281002,"Chalcolithic, 4500 - 3500 B.C.E.",,"Rowan, Y.M. and Kersel, M.M. 2013; Carter, T. 2014 (Pers. comm.)","Carter, T. 2014 (Pers. comm.)",McMaster University,ED-XRF,4,0,2,0,0,0,0,0,0,0,0,0,0,1,1,0,0,0,0,0,0,0,0,0,0,0,0,0,0,0,0,0,0,0,0
10_8,Mersin,10,Turkey,Central Anatolia,36.833333,34.566667,niv. XVI : Chalcolithic.; niv. XV-XIV: Late Chalcolithic.,,"Garstang, J. 1953; Renfrew, C. et al 1966; Brice, W.C. 1953; Wright, G.A. 1969","Forster, N. and Grave, P. 2012",,pXRF,10,0,7,0,3,0,0,0,0,0,0,0,0,0,0,0,0,0,0,0,0,0,0,0,0,0,0,0,0,0,0,0,0,0,0
10_9,Sakyol,10,Turkey,High Valleys,38.9,38.833333,"niv. 13-12: ""Neolithic and Halaf""",,"Kosay, H.Z. 1976; Renfrew, C. et al 1966","Renfrew, C. et al 1966",,OES,2,0,0,0,0,0,0,0,0,0,0,0,0,1,0,0,0,0,0,0,0,0,0,0,0,0,0,0,0,0,0,0,0,1,0
10_10,Tell Arqa,10,Lebanon,Northern Levant,34.530556,36.045833,,Mixed/surface contexts,Khalidi et al. 2013; Thalmann 2006; Thalmann 2000,"Delerue, L. 2007",,MEB-EDS; ICP-MS,31,0,20,0,4,0,0,0,0,0,2,0,0,2,3,0,0,0,0,0,0,0,0,0,0,0,0,0,0,0,0,0,0,0,0
xxx,Nahal Oren,2 or 3,Israel,Southern Levant,32.58333333,35.03333333,PPNA/Early PPNB,,"Delerue, L. 2007","Delerue, L. 2007",,ICP-MS,2,0,1,0,0,0,0,0,0,0,0,0,0,0,0,0,0,0,0,0,0,0,0,0,0,0,0,0,0,0,0,0,0,0,1
xxx,Asikli,3 or 4,Turkey,Central Anatolia,38.35,34.233333,Proto-Neolithic (Todd),The obsidian analyzed was attributed simply as PPNB by Gratuze and can therefore not be separated among ASPRO periods 3 and 4 which correspond with layers 2+3 and 1 respectively.,"Balkan-Atli, N. et al 2001; Balkan-Atli, N. 1994; Gratuze, B. et al 1993; Balkan-Atli, N. and Cauvin, M.C. 1998; Gungordu, F.V. 2010; Chataigner, C. 1998; Schneider, G. 1994; Renfrew, C. et al 1968; Balkan-Atli, N. 1991","Gratuze, B. et al 1993; Schneider, G. 1994; Renfrew, C. et al 1968; Gratuze, B. et al 1994; Chataigner 1998:292",,PIGE,41,1,34,0,5,0,0,0,0,0,0,0,0,0,0,0,0,0,0,0,0,0,0,0,0,0,0,0,0,0,0,0,0,0,2
xxx,Byblos,8 or 9,Lebanon,Northern Levant,34.116667,35.65,Levées XLIII-XL: néolithique récent de Byblos.,,"Renfrew, C. et al 1966; Cauvin, J. 1962; Renfrew, C. and Dixon, J. 1976","Renfrew, C. et al 1966",,OES,3,0,1,0,0,0,0,0,0,0,0,0,0,1,1,0,0,0,0,0,0,0,0,0,0,0,0,0,0,0,0,0,0,0,0
xxx,Cark-in,8 or 9,Turkey,Central Anatolia,36.95,30.65,Late Chalcolithic,"The single analyzed specimen from this site was attributed to group 1e-f by Renfrew, but Chataigner 1998 suggests it may possibly have derived from Nenezi Dag. ","Kokten, K. 1963; Renfrew, C. et al 1966","Renfrew, C. et al 1966",,OES,1,0,0,0,1,0,0,0,0,0,0,0,0,0,0,0,0,0,0,0,0,0,0,0,0,0,0,0,0,0,0,0,0,0,0
xxx,Munhata,8 or 9,Israel,Southern Levant,32.616667,35.533333,"Layer 2A, Wadi Rabah Phase, early 5th millennium B.C. No obsidian from Layer 2B (Yarmoukian) has been sourced.",,"Benedict, P. et al 1980; Renfrew, C. et al 1966; Wright, G.A. and Gordus, A.A. 1969","Wright, G.A., 1969; Wright, G.A. and Gordus, A.A. 1969",,OES,12,0,5,0,0,0,0,0,0,0,0,0,0,4,3,0,0,0,0,0,0,0,0,0,0,0,0,0,0,0,0,0,0,0,0